[{"OBJECT_NAME":"STARLINK-4442","OBJECT_ID":"2022-099R","EPOCH":"2026-03-09T22:38:47.936832","MEAN_MOTION":15.05610071,"ECCENTRICITY":0.00014944,"INCLINATION":97.6042,"RA_OF_ASC_NODE":191.4538,"ARG_OF_PERICENTER":88.5529,"MEAN_ANOMALY":271.5869,"EPHEMERIS_TYPE":0,"CLASSIFICATION_TYPE":"U","NORAD_CAT_ID":53480,"ELEMENT_SET_NO":999,"REV_AT_EPOCH":19608,"BSTAR":0.00075477308,"MEAN_MOTION_DOT":0.00010835,"MEAN_MOTION_DDOT":0},{"OBJECT_NAME":"OBJECT G","OBJECT_ID":"2025-292G","EPOCH":"2026-03-09T22:41:34.708704","MEAN_MOTION":15.05879657,"ECCENTRICITY":0.00150455,"INCLINATION":97.6425,"RA_OF_ASC_NODE":145.7524,"ARG_OF_PERICENTER":352.95,"MEAN_ANOMALY":7.1513,"EPHEMERIS_TYPE":0,"CLASSIFICATION_TYPE":"U","NORAD_CAT_ID":66999,"ELEMENT_SET_NO":999,"REV_AT_EPOCH":1351,"BSTAR":0.00047153864,"MEAN_MOTION_DOT":6.807e-5,"MEAN_MOTION_DDOT":0}]
